NORAD_CAT_ID,OBJECT_NAME,OBJECT_TYPE,EPOCH,MEAN_MOTION,ECCENTRICITY,INCLINATION,RA_OF_ASC_NODE,ARG_OF_PERICENTER,MEAN_ANOMALY,BSTAR,MEAN_MOTION_DOT,MEAN_MOTION_DDOT,TLE_LINE0,TLE_LINE1,TLE_LINE2,SEMIMAJOR_AXIS,PERIOD,APOGEE,PERIGEE,DECAYED
56782.0,STARLINK-6352,PAYLOAD,2023-10-03 19:49:56,15.6992704,0.0003456,69.999,60.3093,270.8756,89.2043,4.3105e-06,3.06e-06,0.0,0 STARLINK-6352,1 56782U 23078R   23276.82635186  .00000306  00000-0  43105-5 0  9994,2 56782  69.9990  60.3093 0003456 270.8756  89.2043 15.69927040 19757,6737.243,91.724,361.436,356.779,0.0
56782.0,STARLINK-6352,PAYLOAD,2023-10-04 11:07:27,15.69931035,0.0003406,69.9992,58.5181,266.9322,93.1484,2.4836e-05,2.775e-05,0.0,0 STARLINK-6352,1 56782U 23078R   23277.46351185  .00002775  00000-0  24836-4 0  9990,2 56782  69.9992  58.5181 0003406 266.9322  93.1484 15.69931035 20110,6737.231,91.724,361.391,356.802,0.0
56782.0,STARLINK-6352,PAYLOAD,2023-10-04 12:39:14,15.69904766,0.0002658,69.9993,58.3389,246.5838,113.5078,-1.0606e-05,-1.486e-05,0.0,0 STARLINK-6352,1 56782U 23078R   23277.52725109 -.00001486  00000-0 -10606-4 0  9998,2 56782  69.9993  58.3389 0002658 246.5838 113.5078 15.69904766 19860,6737.306,91.725,360.962,357.381,0.0
56782.0,STARLINK-6352,PAYLOAD,2023-10-04 18:46:14,15.69912559,0.0003107,69.9988,57.6222,269.4932,90.5908,-6.8798e-07,-2.95e-06,0.0,0 STARLINK-6352,1 56782U 23078R   23277.78211345 -.00000295  00000-0 -68798-6 0  9992,2 56782  69.9988  57.6222 0003107 269.4932  90.5908 15.69912559 20161,6737.284,91.725,361.242,357.056,0.0
56782.0,STARLINK-6352,PAYLOAD,2023-10-05 02:24:59,15.69923673,0.0003285,69.9984,56.7265,271.2085,88.8734,9.5237e-06,9.33e-06,0.0,0 STARLINK-6352,1 56782U 23078R   23278.10068910  .00000933  00000-0  95237-5 0  9991,2 56782  69.9984  56.7265 0003285 271.2085  88.8734 15.69923673 20213,6737.252,91.724,361.331,356.904,0.0
56782.0,STARLINK-6352,PAYLOAD,2023-10-05 10:03:44,15.69932163,0.000342,69.9989,55.8305,274.9946,85.0859,1.8467e-05,2.009e-05,0.0,0 STARLINK-6352,1 56782U 23078R   23278.41926532  .00002009  00000-0  18467-4 0  9993,2 56782  69.9989  55.8305 0003420 274.9946  85.0859 15.69932163 20266,6737.228,91.724,361.397,356.789,0.0
56782.0,STARLINK-6352,PAYLOAD,2023-10-05 11:35:29,15.69929691,0.0003512,69.9978,55.6509,275.1151,84.9644,1.1965e-05,1.226e-05,0.0,0 STARLINK-6352,1 56782U 23078R   23278.48298370  .00001226  00000-0  11965-4 0  9998,2 56782  69.9978  55.6509 0003512 275.1151  84.9644 15.69929691 20016,6737.235,91.724,361.466,356.734,0.0
56782.0,STARLINK-6352,PAYLOAD,2023-10-05 19:14:15,15.69923505,0.0003405,70.0006,54.7557,274.4014,85.6793,9.7121e-07,-9.6e-07,0.0,0 STARLINK-6352,1 56782U 23078R   23278.80157156 -.00000096  00000-0  97121-6 0  9995,2 56782  70.0006  54.7557 0003405 274.4014  85.6793 15.69923505 20320,6737.253,91.724,361.412,356.824,0.0
56782.0,STARLINK-6352,PAYLOAD,2023-10-06 10:31:46,15.69939223,0.0002448,70.0006,52.9632,253.6124,106.4802,3.002e-05,3.401e-05,0.0,0 STARLINK-6352,1 56782U 23078R   23279.43873269  .00003401  00000-0  30020-4 0  9990,2 56782  70.0006  52.9632 0002448 253.6124 106.4802 15.69939223 20429,6737.208,91.723,360.722,357.424,0.0
56782.0,STARLINK-6352,PAYLOAD,2023-10-06 12:03:32,15.69915906,0.0003098,70.0,52.7839,265.9028,94.1814,-1.3172e-05,-1.795e-05,0.0,0 STARLINK-6352,1 56782U 23078R   23279.50245952 -.00001795  00000-0 -13172-4 0  9995,2 56782  70.0000  52.7839 0003098 265.9028  94.1814 15.69915906 20171,6737.275,91.725,361.227,357.052,0.0
56782.0,STARLINK-6352,PAYLOAD,2023-10-06 18:10:32,15.69923461,0.0002868,70.0004,52.0681,264.5809,95.506,1.1031e-06,-8e-07,0.0,0 STARLINK-6352,1 56782U 23078R   23279.75732395 -.00000080  00000-0  11031-5 0  9992,2 56782  70.0004  52.0681 0002868 264.5809  95.5060 15.69923461 20475,6737.253,91.724,361.05,357.186,0.0
56782.0,STARLINK-6352,PAYLOAD,2023-10-06 21:14:02,15.69939336,0.0003492,69.9997,51.71,264.7042,95.3755,5.5878e-05,6.516e-05,0.0,0 STARLINK-6352,1 56782U 23078R   23279.88474888  .00006516  00000-0  55878-4 0  9991,2 56782  69.9997  51.7100 0003492 264.7042  95.3755 15.69939336 20231,6737.208,91.723,361.425,356.72,0.0
56782.0,STARLINK-6352,PAYLOAD,2023-10-07 10:59:48,15.69927975,0.0003072,70.0002,50.0975,262.2742,97.8105,2.1977e-06,5.2e-07,0.0,0 STARLINK-6352,1 56782U 23078R   23280.45820532  .00000052  00000-0  21977-5 0  9990,2 56782  70.0002  50.0975 0003072 262.2742  97.8105 15.69927975 20587,6737.24,91.724,361.175,357.035,0.0
56782.0,STARLINK-6352,PAYLOAD,2023-10-07 12:31:34,15.69926538,0.0003098,70.0001,49.9185,262.4342,97.6502,-2.5078e-07,-2.43e-06,0.0,0 STARLINK-6352,1 56782U 23078R   23280.52192300 -.00000243  00000-0 -25078-6 0  9994,2 56782  70.0001  49.9185 0003098 262.4342  97.6502 15.69926538 20338,6737.244,91.724,361.196,357.022,0.0
56782.0,STARLINK-6352,PAYLOAD,2023-10-07 18:38:34,15.69923768,0.0002984,69.9997,49.2019,262.2885,97.7972,1.989e-06,2.7e-07,0.0,0 STARLINK-6352,1 56782U 23078R   23280.77679215  .00000027  00000-0  19890-5 0  9998,2 56782  69.9997  49.2019 0002984 262.2885  97.7972 15.69923768 20379,6737.252,91.724,361.127,357.107,0.0
56782.0,STARLINK-6352,PAYLOAD,2023-10-08 09:56:05,15.69943099,0.0002699,70.0009,47.4101,251.8717,108.2184,1.4509e-05,1.534e-05,0.0,0 STARLINK-6352,1 56782U 23078R   23281.41394936  .00001534  00000-0  14509-4 0  9999,2 56782  70.0009  47.4101 0002699 251.8717 108.2184 15.69943099 20731,6737.197,91.723,360.88,357.243,0.0
56782.0,STARLINK-6352,PAYLOAD,2023-10-08 11:27:51,15.699232,0.0002882,69.9993,47.2305,255.0755,105.0122,-9.9788e-06,-1.412e-05,0.0,0 STARLINK-6352,1 56782U 23078R   23281.47767515 -.00001412  00000-0 -99788-5 0  9992,2 56782  69.9993  47.2305 0002882 255.0755 105.0122 15.69923200 20487,6737.254,91.724,361.06,357.177,0.0
56782.0,STARLINK-6352,PAYLOAD,2023-10-08 17:34:51,15.69928076,0.0002666,70.0006,46.5149,262.3121,97.7772,-6.3116e-06,-9.71e-06,0.0,0 STARLINK-6352,1 56782U 23078R   23281.73254014 -.00000971  00000-0 -63116-5 0  9991,2 56782  70.0006  46.5149 0002666 262.3121  97.7772 15.69928076 20788,6737.24,91.724,360.901,357.309,0.0
56782.0,STARLINK-6352,PAYLOAD,2023-10-09 11:55:54,15.69903491,0.0002643,70.0007,44.3653,248.8485,111.2429,-2.6549e-05,-3.4e-05,0.0,0 STARLINK-6352,1 56782U 23078R   23282.49715473 -.00003400  00000-0 -26549-4 0  9994,2 56782  70.0007  44.3653 0002643 248.8485 111.2429 15.69903491 20642,6737.31,91.725,360.956,357.394,0.0
56782.0,STARLINK-6352,PAYLOAD,2023-10-09 18:02:53,15.69920331,0.0002912,70.0002,43.6474,262.6592,97.4273,3.3733e-06,1.93e-06,0.0,0 STARLINK-6352,1 56782U 23078R   23282.75201346  .00000193  00000-0  33733-5 0  9990,2 56782  70.0002  43.6474 0002912 262.6592  97.4273 15.69920331 20949,6737.262,91.724,361.089,357.165,0.0
56782.0,STARLINK-6352,PAYLOAD,2023-10-09 21:06:23,15.69939209,0.0003346,69.9999,43.2887,268.5646,91.5167,5.6225e-06,4.64e-06,0.0,0 STARLINK-6352,1 56782U 23078R   23282.87943552  .00000464  00000-0  56225-5 0  9997,2 56782  69.9999  43.2887 0003346 268.5646  91.5167 15.69939209 20965,6737.208,91.723,361.327,356.819,0.0
56782.0,STARLINK-6352,PAYLOAD,2023-10-10 10:52:10,15.6992389,0.0002933,70.0001,41.6773,252.1496,107.938,-7.6097e-06,-1.127e-05,0.0,0 STARLINK-6352,1 56782U 23078R   23283.45289395 -.00001127  00000-0 -76097-5 0  9998,2 56782  70.0001  41.6773 0002933 252.1496 107.9380 15.69923890 21050,6737.252,91.724,361.093,357.141,0.0
56782.0,STARLINK-6352,PAYLOAD,2023-10-10 20:02:40,15.69935288,0.0002912,70.0008,40.6028,276.2173,83.8691,4.253e-05,4.906e-05,0.0,0 STARLINK-6352,1 56782U 23078R   23283.83519247  .00004906  00000-0  42530-4 0  9992,2 56782  70.0008  40.6028 0002912 276.2173  83.8691 15.69935288 20853,6737.219,91.724,361.046,357.122,0.0
56782.0,STARLINK-6352,PAYLOAD,2023-10-11 14:23:42,15.69924056,0.000266,70.0008,38.4523,268.0899,91.9992,2.7678e-05,3.117e-05,0.0,0 STARLINK-6352,1 56782U 23078R   23284.59979937  .00003117  00000-0  27678-4 0  9991,2 56782  70.0008  38.4523 0002660 268.0899  91.9992 15.69924056 20970,6737.251,91.724,360.908,357.324,0.0
56782.0,STARLINK-6352,PAYLOAD,2023-10-11 17:27:12,15.69926019,0.0002934,70.0011,38.0948,269.9577,90.1283,2.9343e-05,3.317e-05,0.0,0 STARLINK-6352,1 56782U 23078R   23284.72723211  .00003317  00000-0  29343-4 0  9991,2 56782  70.0011  38.0948 0002934 269.9577  90.1283 15.69926019 21255,6737.246,91.724,361.087,357.134,0.0
56782.0,STARLINK-6352,PAYLOAD,2023-10-12 10:16:29,15.69922655,0.0003093,70.0012,36.1255,262.8812,97.2032,2.2366e-05,2.477e-05,0.0,0 STARLINK-6352,1 56782U 23078R   23285.42811514  .00002477  00000-0  22366-4 0  9997,2 56782  70.0012  36.1255 0003093 262.8812  97.2032 15.69922655 21103,6737.255,91.724,361.204,357.036,0.0
56782.0,STARLINK-6352,PAYLOAD,2023-10-12 16:23:29,15.69928907,0.000305,70.0012,35.4089,263.3236,96.7613,3.0401e-05,3.445e-05,0.0,0 STARLINK-6352,1 56782U 23078R   23285.68297905  .00003445  00000-0  30401-4 0  9992,2 56782  70.0012  35.4089 0003050 263.3236  96.7613 15.69928907 21148,6737.237,91.724,361.157,357.048,0.0
56782.0,STARLINK-6352,PAYLOAD,2023-10-13 10:44:31,15.6992034,0.0002878,70.0007,33.2582,262.9585,97.1283,7.3415e-06,6.7e-06,0.0,0 STARLINK-6352,1 56782U 23078R   23286.44758414  .00000670  00000-0  73415-5 0  9994,2 56782  70.0007  33.2582 0002878 262.9585  97.1283 15.69920340 21528,6737.262,91.724,361.066,357.188,0.0
56782.0,STARLINK-6352,PAYLOAD,2023-10-13 13:47:59,15.69965243,0.000258,69.9998,32.8994,266.6276,93.4624,-0.0001051,-0.0001285,0.0,0 STARLINK-6352,1 56782U 23078R   23286.57499266 -.00012850  00000-0 -10510-3 0  9995,2 56782  69.9998  32.8994 0002580 266.6276  93.4624 15.69965243 21286,6737.133,91.722,360.737,357.26,0.0
56782.0,STARLINK-6352,PAYLOAD,2023-10-13 16:51:30,15.69940264,0.0002747,69.9996,32.5409,266.2205,93.8676,-1.6115e-05,-2.151e-05,0.0,0 STARLINK-6352,1 56782U 23078R   23286.70244015 -.00002151  00000-0 -16115-4 0  9991,2 56782  69.9996  32.5409 0002747 266.2205  93.8676 15.69940264 21563,6737.205,91.723,360.921,357.219,0.0
